ISS (ZARYA)             
1 25544U 98067A   25361.17953132  .00014677  00000+0  26589-3 0  9995
2 25544  51.6319  70.9637 0003231 308.7757  51.2942 15.49865152545097
CSS (TIANHE)            
1 48274U 21035A   25361.12386075  .00020850  00000+0  25614-3 0  9990
2 48274  41.4677 289.3444 0008751 156.8093 203.3141 15.59745830266277
ISS (NAUKA)             
1 49044U 21066A   25360.85713459  .00014958  00000+0  27092-3 0  9993
2 49044  51.6319  72.5609 0003230 307.0606  53.0087 15.49855582230445
FREGAT DEB              
1 49271U 11037PF  25360.49630089  .00006366  00000+0  14302-1 0  9991
2 49271  51.6519 158.7680 0864537 253.7501  96.6634 12.34586922203633
CSS (WENTIAN)           
1 53239U 22085A   25360.93177270  .00018761  00000+0  23104-3 0  9996
2 53239  41.4675 290.5114 0008732 154.9410 205.1854 15.59735336173842
CSS (MENGTIAN)          
1 54216U 22143A   25360.93177270  .00018761  00000+0  23104-3 0  9997
2 54216  41.4675 290.5114 0008732 154.9410 205.1854 15.59735336158649
SHENZHOU-20 (SZ-20)     
1 63632U 25082A   25360.93177270  .00018761  00000+0  23104-3 0  9994
2 63632  41.4675 290.5114 0008732 154.9410 205.1854 15.59735336255302
PROGRESS-MS 31          
1 64751U 25146A   25360.85713459  .00014958  00000+0  27092-3 0  9998
2 64751  51.6319  72.5609 0003230 307.0606  53.0087 15.49855582  6752
TIANZHOU-9              
1 64786U 25149A   25360.93177270  .00018761  00000+0  23104-3 0  9999
2 64786  41.4675 290.5114 0008732 154.9410 205.1854 15.59735336255303
CREW DRAGON 11          
1 65077U 25166A   25360.85713459  .00014958  00000+0  27092-3 0  9992
2 65077  51.6319  72.5609 0003230 307.0606  53.0087 15.49855582  2143
DRAGON CRS-33           
1 65304U 25186A   25360.85713459  .00014958  00000+0  27092-3 0  9997
2 65304  51.6319  72.5609 0003230 307.0606  53.0087 15.49855582   111
PROGRESS-MS 32          
1 65586U 25204A   25360.85713459  .00014958  00000+0  27092-3 0  9990
2 65586  51.6319  72.5609 0003230 307.0606  53.0087 15.49855582   270
